{"type": "FeatureCollection", "features": [{"type": "Feature", "properties": {"status": "approximate; needs endpoint and route review", "buffer_m": 250, "cap": "flat"}, "geometry": {"type": "Polygon", "coordinates": [[[121.50291562606463, 25.048325654574192], [121.50411272260604, 25.051026919421847], [121.5041037614731, 25.051026089421256], [121.50346823491653, 25.05065869002256], [121.50344744091838, 25.050679125606056], [121.50351375533116, 25.050735119740505], [121.50439609462545, 25.051733875631225], [121.50445149605612, 25.051791342428775], [121.5046766028571, 25.052299277268265], [121.50493026438579, 25.05220599248572], [121.50508816771784, 25.052332444873365], [121.50529165439276, 25.052478936027878], [121.50551083743137, 25.05260524739338], [121.50574331504573, 25.05270999483924], [121.5059865397439, 25.05279203053153], [121.50623784624845, 25.052850455512885], [121.50643621223341, 25.052886618029227], [121.50669770893637, 25.05292119947614], [121.50696176148129, 25.052930216268855], [121.50722536651284, 25.052913565852297], [121.50801786979547, 25.052824626191242], [121.50812718139365, 25.052810097964844], [121.51129663630941, 25.052322856587345], [121.51143100123714, 25.052298702230118], [121.51261928111467, 25.05205381909095], [121.51291326184496, 25.051975553239586], [121.51402240149132, 25.05161109990227], [121.51466946154692, 25.051442348393397], [121.5162278875478, 25.05111810416793], [121.51627158080535, 25.051122612583058], [121.51651506451154, 25.051125821769194], [121.51675771803698, 25.051107242549513], [121.51699719738727, 25.051067054398285], [121.51723118923542, 25.05100564552818], [121.51745743327159, 25.050923609139502], [121.51753595696519, 25.05088662850017], [121.52148602253583, 25.050256011361547], [121.52433255349582, 25.050069595205677], [121.52457365019875, 25.050042932191552], [121.52556405300294, 25.049888205002485], [121.52579942092517, 25.049840590912762], [121.52678942661917, 25.04959370899436], [121.5269303877971, 25.049554414417376], [121.53026075984505, 25.048526331147915], [121.53502866006495, 25.04719637932978], [121.5357431584033, 25.047082081409787], [121.53716340270299, 25.0469896447192], [121.54109242672904, 25.046844807679662], [121.54565838434344, 25.047330592058064], [121.54589060583275, 25.04734526541072], [121.54648528244745, 25.047357322955065], [121.54682841694321, 25.047342579777204], [121.55118690741095, 25.04687780287443], [121.55126947316236, 25.04686771247812], [121.55271776898907, 25.046668073393594], [121.55354584711863, 25.04663867306815], [121.55422871033483, 25.046726858832574], [121.55690377918583, 25.047251968070817], [121.55803018375526, 25.047672070030607], [121.56174426186251, 25.04927103773226], [121.561911869729, 25.04933643237337], [121.56409569438148, 25.050103118043733], [121.5641818677136, 25.05013171333326], [121.56576984237007, 25.050628519075595], [121.56595165707864, 25.050678391468338], [121.5683328065685, 25.0512418413735], [121.56857891929434, 25.051288082507856], [121.5701656564948, 25.05151047389291], [121.57036004474864, 25.05153059853725], [121.57135142327613, 25.051597248374083], [121.57155592141525, 25.05160327914673], [121.57532184354821, 25.051572561591875], [121.57544418240666, 25.051568807514307], [121.57715537864831, 25.05147769365253], [121.58083439064895, 25.05147778293807], [121.59173301584622, 25.05319599594751], [121.5917724932391, 25.05320191954112], [121.59411676581837, 25.053535971977265], [121.5972550711416, 25.054069561497677], [121.59730902160209, 25.05407817278906], [121.60483049656744, 25.055200599651894], [121.60838502190153, 25.055775336615866], [121.60845209815874, 25.055785319021016], [121.61162575825355, 25.05621697146937], [121.61167118126242, 25.056222758012638], [121.61603462283809, 25.05674109982559], [121.61603857805841, 25.05671346989255], [121.6158046285838, 25.056665454597784], [121.61731771903334, 25.052414779625607], [121.61711921119567, 25.052356146651483], [121.61689957959257, 25.052301296764725], [121.61667534722932, 25.052265048408092], [121.612334802394, 25.05174942384761], [121.60921754880566, 25.051325441326664], [121.60568034402236, 25.05075350215363], [121.60564777431468, 25.050748439286014], [121.59813728886854, 25.049627648767963], [121.59499024168713, 25.049092570389604], [121.59491851341247, 25.04908136439352], [121.59255813388808, 25.048745015716122], [121.58146987725334, 25.04699689077716], [121.58125936872983, 25.046972100634324], [121.58104730352704, 25.046963815412507], [121.57708317533526, 25.046963718476746], [121.57693848977222, 25.046967564806696], [121.57521619092387, 25.04705926952831], [121.57161400685712, 25.04708864969104], [121.57082240002188, 25.04703542984799], [121.56945681422185, 25.04684403353819], [121.56728946174991, 25.046331173522216], [121.56583476701502, 25.04587606539185], [121.56377892496273, 25.045154313408155], [121.56008815145782, 25.04356538440326], [121.55996820669684, 25.043517237852456], [121.55857844965341, 25.042998917202517], [121.55837287695307, 25.042931722351653], [121.55816160724656, 25.04288128182943], [121.5551859725315, 25.042297172380895], [121.55501180524834, 25.042268868530726], [121.55402023300572, 25.042140814639122], [121.55379862699432, 25.042121398777624], [121.55357600250342, 25.04212018429672], [121.55238699655591, 25.042162398726326], [121.55211279997366, 25.042186090552878], [121.55056936893939, 25.0423988434036], [121.54642340736723, 25.042840956135905], [121.54611736105828, 25.042834750551226], [121.54147405247032, 25.042340728689286], [121.54128052017832, 25.04232710923966], [121.54108641148767, 25.042327334463963], [121.53692488353954, 25.042480742108197], [121.53684845081106, 25.0424846369065], [121.535263297682, 25.04258780529769], [121.53501133605292, 25.042616081857357], [121.53402102031545, 25.04277450135819], [121.5337241035248, 25.042839401421684], [121.52877500384483, 25.04421989211221], [121.52870515828688, 25.044240408801354], [121.52540996760382, 25.045257627479515], [121.52460752116811, 25.045457736181298], [121.5238559317983, 25.045575153870928], [121.52100493611417, 25.045761858405804], [121.52075484547558, 25.04578993712078], [121.51619915728118, 25.046517231354695], [121.51599921524806, 25.046557690803642], [121.51591593318022, 25.046563678881537], [121.51567894592259, 25.046602062571164], [121.51350055473695, 25.047055298065626], [121.51337028490741, 25.047085812632286], [121.51257831170177, 25.0472923560938], [121.51241953267726, 25.047339088678484], [121.5113762261102, 25.0476819088523], [121.51040444554332, 25.047882174248304], [121.50771874098406, 25.04829505008965], [121.50726080643288, 25.047776708840985], [121.50701487807687, 25.04753646516837], [121.50681597882247, 25.04736852379423], [121.50664388058782, 25.04723594487564], [121.5064592691526, 25.047118161426358], [121.5062636722272, 25.047016148117727], [121.5060587084156, 25.046930749119525], [121.50586020118041, 25.04685779297592], [121.50564032776968, 25.04678773998262], [121.50541420451843, 25.046736806801214], [121.50518383004714, 25.046705443612133], [121.50495124054554, 25.046693927623974], [121.50471849177814, 25.046702360623748], [121.50448764091735, 25.046730668077267], [121.50428956826384, 25.046763656360273], [121.50408076292197, 25.04680700334795], [121.50387684662402, 25.046866614773986], [121.50367934288666, 25.04694204526786], [121.50348972732421, 25.047032731269816], [121.50329194691862, 25.04713749534602], [121.50310089009157, 25.04724968573049], [121.50292192412189, 25.047377355125686], [121.50275655541758, 25.047519428930872], [121.50260617595177, 25.04767471129835], [121.50240887815583, 25.047898334713373], [121.50227888650787, 25.04805985504057], [121.50216512439786, 25.048231236976314], [121.5020684876501, 25.048411131072065], [121.50198973725533, 25.048598120849075], [121.50192949337666, 25.048790733950852], [121.50173432915231, 25.049539288474755], [121.5017640893773, 25.049545727311568], [121.50291562606463, 25.048325654574192]]]}}, {"type": "Feature", "properties": {"role": "approximate centerline"}, "geometry": {"type": "LineString", "coordinates": [[121.50374908609068, 25.0502063825645], [121.50414491710849, 25.050060814762944], [121.50434006740075, 25.049312257339633], [121.50453736385988, 25.04908863142136], [121.50473514627505, 25.048983865681997], [121.50493322235432, 25.048950876760752], [121.50513173245817, 25.04902383407842], [121.50533063217408, 25.049191777664547], [121.50632631909782, 25.050318818641397], [121.50672405510377, 25.05063733186653], [121.50692241764493, 25.050673493797934], [121.50771490680403, 25.05058455594964], [121.51088430645541, 25.0500973241023], [121.51207256636349, 25.049852445583785], [121.51326021612672, 25.049462195263406], [121.51405220199094, 25.049255648022754], [121.51623062972037, 25.048802403983892], [121.51642912431832, 25.048870175102127], [121.51662679107817, 25.04874036354311], [121.52118255839743, 25.048013055129942], [121.52415487006508, 25.04781840384906], [121.52514525563144, 25.047663679688235], [121.52613524532367, 25.04741680232127], [121.52950032347702, 25.046378007657594], [121.53444950070568, 25.044997491908152], [121.53543983363376, 25.044839069311372], [121.53702501548314, 25.044735898588954], [121.54118661931037, 25.04458248691531], [121.54594574141039, 25.04508882726874], [121.54654040713713, 25.04510088478021], [121.5508988197863, 25.044636117518674], [121.55248346698117, 25.044417682966063], [121.55367249461243, 25.044375467404766], [121.55466408456148, 25.04450352327629], [121.55763977048764, 25.045087642129022], [121.5590295474959, 25.04560597107557], [121.56280285068465, 25.047230432950556], [121.56498664301733, 25.04799710629331], [121.56657459305461, 25.048493903999326], [121.56895570276903, 25.04905734477562], [121.57054241176138, 25.049279732697098], [121.57153377223166, 25.049346381655447], [121.57529962543896, 25.049315665878858], [121.57708307298525, 25.049220705069892], [121.58104727375809, 25.04922080070489], [121.59215543793248, 25.05097206006464], [121.59453562398265, 25.051311230530853], [121.59770964877613, 25.051850894568737], [121.60524729421645, 25.05297573650338], [121.60881802361448, 25.0535530948297], [121.61199162714684, 25.05398474065051], [121.61635499039211, 25.05450307468649], [121.61655350137144, 25.05456170860608]]}}]}