{"type": "FeatureCollection", "features": [{"type": "Feature", "properties": {"rule": "250m buffer union all intersected complete road-enclosed blocks", "area_m2": 7396469.72053965}, "geometry": {"type": "Polygon", "coordinates": [[[121.5040459, 25.045846400000002], [121.50382970000001, 25.045901799999996], [121.5037165, 25.0459295], [121.5034557, 25.04599029999999], [121.5032834, 25.046029800000003], [121.50327220000001, 25.0461053], [121.50325570000001, 25.0462172], [121.50330672500667, 25.046258752271534], [121.5032443358505, 25.04629416646563], [121.5031218367821, 25.046370865312277], [121.502943672461, 25.046493543536588], [121.50277835839702, 25.046630338636664], [121.50262723785211, 25.046780139119804], [121.5025455374087, 25.046868838099513], [121.50240975474462, 25.047030535886687], [121.50238065440539, 25.047068635499915], [121.50227519839335, 25.047219059771752], [121.50224389781864, 25.047267859337154], [121.50214315748073, 25.04744192193197], [121.50205944236434, 25.04762331627656], [121.50199338884501, 25.047810663635556], [121.50194618599916, 25.047967762932704], [121.50189748432906, 25.048163725354037], [121.50186810638996, 25.048362856839802], [121.50185828508828, 25.048563579326512], [121.50185828365922, 25.048634679348773], [121.50186325052562, 25.048738856146038], [121.50181453162551, 25.048793352754206], [121.50175443104852, 25.04886755196941], [121.50188445767807, 25.048954951320187], [121.50192196555291, 25.049177887910048], [121.50193876426938, 25.049247188199327], [121.50201077806462, 25.04948280892422], [121.50205627602173, 25.049605509663614], [121.50215667509062, 25.049834256955197], [121.5022838442217, 25.050051673633586], [121.50228797975706, 25.0500578994552], [121.50238643750276, 25.05025074045411], [121.5024035021979, 25.050287481174177], [121.50243167274296, 25.05027662359314], [121.50231200889085, 25.04994534614533], [121.50225930814273, 25.049637220118672], [121.50229615227073, 25.04923167643081], [121.50391844463913, 25.05032209481623], [121.50396962845538, 25.05041648123189], [121.50399180240996, 25.050462886067038], [121.50450038474705, 25.052008268105805], [121.50416839262901, 25.051945301643485], [121.5038642926861, 25.05182320794413], [121.50336216292591, 25.051484320814094], [121.50315327063477, 25.051267972333434], [121.5031288749969, 25.051284781828013], [121.50315654932527, 25.05131811019953], [121.50333088256045, 25.05154855062208], [121.50349692490782, 25.05174416126191], [121.50351333288422, 25.051761444859753], [121.5035521488201, 25.051810494283046], [121.50359931320301, 25.051876561463892], [121.50376857445032, 25.052086149054688], [121.50396319154164, 25.052276598349227], [121.50414039181531, 25.052431100356248], [121.50433104879923, 25.052581178073392], [121.5045374537094, 25.05271283965775], [121.5046337546484, 25.05276784048278], [121.50489896150413, 25.052899514901526], [121.50499646279232, 25.052941115560223], [121.50526695267598, 25.05303931374548], [121.50537875442726, 25.053073114296122], [121.50557187922391, 25.053123679966745], [121.50576886723934, 25.053159823343144], [121.50587896919065, 25.05317582359729], [121.5061617870524, 25.053201881298545], [121.50626288890135, 25.05320588134156], [121.50660480701227, 25.053197883672944], [121.50672840923784, 25.053187183446052], [121.50696531170526, 25.05315609626236], [121.50714903595035, 25.053115191989757], [121.50719590000001, 25.05335], [121.5072492, 25.0536637], [121.5073606, 25.054212899999996], [121.5074629, 25.054639499999993], [121.5077004, 25.055512499999995], [121.5077803, 25.0558044], [121.50795800000002, 25.056474199999997], [121.50808120000002, 25.0569067], [121.5081385, 25.056891899999997], [121.5081884, 25.056881799999992], [121.5082879, 25.0568704], [121.508139, 25.056304899999997], [121.5080547, 25.055981699999997], [121.50789650000002, 25.055399399999995], [121.5078661, 25.05525559999999], [121.50781979999998, 25.0550569], [121.5076665, 25.054463199999997], [121.50760390000002, 25.054244499999996], [121.50751279999999, 25.0538096], [121.50749629999999, 25.053713200000008], [121.5075951, 25.053694899999996], [121.508134, 25.053547200000004], [121.50817360000002, 25.053537900000002], [121.50821729999998, 25.053522799999993], [121.5086633, 25.053421999999998], [121.5087, 25.053413599999992], [121.5088228, 25.0533845], [121.5089, 25.0533662], [121.5094945, 25.0533193], [121.50974949999998, 25.0532992], [121.51021480000001, 25.053262399999994], [121.51033000000001, 25.0532547], [121.51068400000001, 25.053247999999993], [121.5106713, 25.052950800000005], [121.5106666, 25.052839999999996], [121.51175540000001, 25.0527617], [121.5118127, 25.0527576], [121.51187009999998, 25.0527548], [121.5121414, 25.0527511], [121.5121394, 25.052270799999995], [121.51273200000001, 25.052639999999997], [121.5131312, 25.052895600000003], [121.51322130000001, 25.052953300000002], [121.5132341, 25.052280300000003], [121.51365190000001, 25.052295999999995], [121.5139047, 25.0523116], [121.5139815, 25.052314999999993], [121.51405419999999, 25.052858500000003], [121.5141678, 25.053405600000005], [121.51419780000002, 25.053546800000003], [121.51427700000002, 25.05395280000001], [121.5142974, 25.054065799999993], [121.51441669999998, 25.054034399999995], [121.51439680000001, 25.0539509], [121.51433389999998, 25.053642799999995], [121.5142857, 25.053404999999998], [121.5142124, 25.053005499999998], [121.51417060000001, 25.052807299999998], [121.5141449, 25.05263909999999], [121.5141117, 25.052422199999988], [121.51414120000001, 25.052421099999993], [121.514475, 25.052443599999997], [121.5144633, 25.052502499999996], [121.5144294, 25.052520400000002], [121.5144024, 25.05268879999999], [121.5148198, 25.052770299999995], [121.5150508, 25.0528151], [121.5151455, 25.0524041], [121.51520359999999, 25.051996100000004], [121.5156196, 25.051887299999997], [121.51603640000002, 25.051771099999996], [121.51627580000002, 25.051716599999995], [121.5170312, 25.05154299999999], [121.5171227, 25.051521799999996], [121.5172175, 25.0518658], [121.5172374, 25.051938199999995], [121.5174263, 25.051925299999997], [121.51741779999999, 25.0518878], [121.5173738, 25.051748999999994], [121.51731870000002, 25.051560499999997], [121.5172434, 25.0512914], [121.51734240000002, 25.0512698], [121.5176817, 25.0511907], [121.5179526, 25.051136100000008], [121.5183741, 25.051046999999997], [121.5184143, 25.051197199999997], [121.51848170000001, 25.051449099999992], [121.51852, 25.051592200000005], [121.51860740000001, 25.051918900000004], [121.51863169999999, 25.0520094], [121.51870769999998, 25.052293799999998], [121.5187495, 25.052450000000004], [121.5195319, 25.0522573], [121.5194859, 25.052099799999997], [121.52023410000001, 25.05190959999999], [121.5202379, 25.052268199999997], [121.52026200000002, 25.052548999999996], [121.52026089999998, 25.0526168], [121.5204547, 25.052575600000004], [121.520451, 25.0525128], [121.52039240000002, 25.051687999999995], [121.5203726, 25.051406999999998], [121.52036859999998, 25.051297799999997], [121.520366, 25.051225200000005], [121.5203549, 25.0509502], [121.520321, 25.0506275], [121.520513, 25.050634900000002], [121.5208726, 25.0506475], [121.52092719999999, 25.050643999999995], [121.52171110000002, 25.050434699999997], [121.52176570000002, 25.050423899999995], [121.5218877, 25.050687499999995], [121.52202890000001, 25.050973699999997], [121.52211970000002, 25.0511868], [121.5222069, 25.051400600000004], [121.5222829, 25.0516401], [121.5224058, 25.052072399999997], [121.5224421, 25.052204699999994], [121.5225358, 25.052192999999995], [121.52265320000001, 25.052178200000004], [121.5226168, 25.052039999999998], [121.52253659999998, 25.051729699999996], [121.522426, 25.051368499999995], [121.52236510000002, 25.0511988], [121.5222839, 25.0510067], [121.52219480000001, 25.050813], [121.52205380000001, 25.050518299999997], [121.5221191, 25.0504926], [121.52233150000002, 25.050409199999997], [121.52246560000002, 25.050381200000004], [121.5227364, 25.050316899999995], [121.5230534, 25.0502488], [121.52318690000001, 25.0507222], [121.523199, 25.050758899999995], [121.52323310000001, 25.05074859999999], [121.5237058, 25.050635600000003], [121.52377250000002, 25.050619300000005], [121.52381870000002, 25.050607999999997], [121.5248132, 25.050365000000003], [121.52487720000002, 25.0503492], [121.52498829999999, 25.050762700000003], [121.52509959999999, 25.0511359], [121.52518450000001, 25.0514405], [121.52518870000002, 25.051455600000004], [121.525272, 25.051758399999997], [121.5253183, 25.051939399999995], [121.52533300000002, 25.052045500000002], [121.52541019999998, 25.052041899999995], [121.5253944, 25.0519312], [121.52535340000001, 25.0517854], [121.5252564, 25.0514361], [121.52516850000002, 25.051119899999993], [121.52506149999999, 25.0507347], [121.52495430000002, 25.0503479], [121.5250094, 25.0503353], [121.5267241, 25.0499327], [121.5277041, 25.049684299999992], [121.5278462, 25.049669699999995], [121.5282545, 25.049820499999996], [121.52800690000001, 25.0503556], [121.5280883, 25.050387299999993], [121.5282262, 25.050439099999995], [121.5282655, 25.050453800000003], [121.52833930000001, 25.050439500000003], [121.5284771, 25.0501275], [121.52855970000002, 25.050099999999997], [121.52866020000002, 25.0499195], [121.52875600000002, 25.049743099999997], [121.52884009999998, 25.049597700000003], [121.52896120000001, 25.04939999999999], [121.5290967, 25.049193599999988], [121.52922860000001, 25.049], [121.5292719, 25.0490176], [121.52991229999999, 25.049025], [121.5300226, 25.049023900000005], [121.53013540000002, 25.049022499999992], [121.53146040000001, 25.0490064], [121.5314474, 25.0484846], [121.5323982, 25.04846669999999], [121.53275929999998, 25.048464699999993], [121.5328994, 25.0484625], [121.5330402, 25.048459099999995], [121.53305900000001, 25.048333499999995], [121.5330519, 25.047944499999996], [121.5331243, 25.0479423], [121.533385, 25.047937900000004], [121.5338856, 25.0479295], [121.5347191, 25.047915699999994], [121.53597240000002, 25.047894399999993], [121.5362106, 25.047901499999995], [121.53636490000001, 25.0479245], [121.5363899, 25.047925200000005], [121.53645820000001, 25.0479273], [121.536468, 25.048276999999995], [121.53646780000001, 25.048394499999997], [121.5365289, 25.048393499999996], [121.5365879, 25.048392599999996], [121.53693850000002, 25.048375699999998], [121.5369603, 25.0483136], [121.53696380000001, 25.048264799999995], [121.5369591, 25.04755769999999], [121.5369534, 25.047252800000003], [121.5370057, 25.047262199999995], [121.53732220000002, 25.047319], [121.53737440000002, 25.046999899999996], [121.5380038, 25.047059600000008], [121.5379783, 25.047320799999998], [121.53836249999999, 25.047321799999995], [121.5387496, 25.047319900000005], [121.5390728, 25.0473166], [121.5394455, 25.0473057], [121.54038800000001, 25.0472781], [121.5408798, 25.0473166], [121.5413704, 25.0473931], [121.5413781, 25.047374799999996], [121.54141889999998, 25.047200699999998], [121.5414583, 25.0470775], [121.5414661, 25.047053099999996], [121.54149689999998, 25.046969999999998], [121.5415689, 25.046988399999996], [121.54162229999999, 25.0470024], [121.5416657, 25.047013099999997], [121.54172450000002, 25.0470253], [121.5419938, 25.047089399999997], [121.54204949999999, 25.047102699999993], [121.54210430000002, 25.0471157], [121.54216700000002, 25.047129099999992], [121.54221360000001, 25.0471397], [121.5423217, 25.0471589], [121.542362, 25.047168600000003], [121.5424153, 25.0471814], [121.5427172, 25.047266199999992], [121.54335240000002, 25.047428], [121.5434591, 25.047455499999998], [121.54355590000002, 25.047480399999998], [121.5436041, 25.0474928], [121.54372170000002, 25.047522899999997], [121.5437531, 25.0475296], [121.5438654, 25.047563299999997], [121.5440063, 25.047599199999997], [121.54414540000002, 25.047633499999996], [121.5442162, 25.0476503], [121.5442633, 25.0476615], [121.5449455, 25.047823499999996], [121.54494740000001, 25.04772339999999], [121.5449451, 25.0476179], [121.54494260000001, 25.04750509999999], [121.54598, 25.0475012], [121.54635760000001, 25.047565699999996], [121.5467936, 25.047636600000004], [121.54684479999999, 25.048108699999997], [121.5468407, 25.048203999999995], [121.5468791, 25.0482047], [121.5469345, 25.048204699999996], [121.54699410000002, 25.0482047], [121.5472451, 25.048204700000003], [121.54730350000001, 25.048204699999996], [121.5473526, 25.048204699999996], [121.54742920000001, 25.048205099999997], [121.54750690000002, 25.0482048], [121.54750600000001, 25.0481101], [121.5475053, 25.0480334], [121.5475497, 25.047981899999986], [121.5476112, 25.047955799999997], [121.54767970000002, 25.047987599999995], [121.54771159999999, 25.048027], [121.54771430000001, 25.048109299999997], [121.5477135, 25.048204000000002], [121.5483804, 25.048206199999996], [121.54845, 25.0482064], [121.5485455, 25.048206700000005], [121.54866799999999, 25.048205899999992], [121.5489337, 25.048204199999997], [121.5491664, 25.0482029], [121.54916240000001, 25.048036800000002], [121.549162, 25.047973], [121.5491617, 25.047911399999997], [121.5491572, 25.04715909999999], [121.549253, 25.047158199999995], [121.54930670000002, 25.047156800000003], [121.54963409999999, 25.0471482], [121.5497003, 25.047146500000004], [121.5507125, 25.047135199999992], [121.55204479999999, 25.047131199999995], [121.55204990000001, 25.0472925], [121.55206100000001, 25.047622900000004], [121.55255549999998, 25.0476154], [121.5525504, 25.047227000000003], [121.5530722, 25.0472363], [121.55346209999999, 25.047243699999996], [121.5534755, 25.0471583], [121.55399019999999, 25.047197], [121.554152, 25.0472196], [121.5549113, 25.047282099999997], [121.5551736, 25.047318299999997], [121.55632970000002, 25.047472100000004], [121.5576673, 25.047632199999995], [121.55774469999999, 25.0476415], [121.5577549, 25.0480857], [121.5577609, 25.048186099999995], [121.5578747, 25.048194099999996], [121.55799810000002, 25.048212999999997], [121.5580625, 25.0482208], [121.55812089999999, 25.0482243], [121.5583662, 25.0482438], [121.55843200000001, 25.048249099999996], [121.55847070000002, 25.0482521], [121.55852530000001, 25.0482582], [121.558616, 25.048268199999992], [121.5586428, 25.0482709], [121.558698, 25.048277599999995], [121.55874520000002, 25.048283000000005], [121.5588048, 25.048289800000003], [121.55914900000002, 25.0483327], [121.5594411, 25.0483594], [121.55942540000001, 25.048468], [121.5594175, 25.048511199999997], [121.5593757, 25.0489478], [121.5599727, 25.0490123], [121.56003080000002, 25.049016799999997], [121.5608144, 25.049112800000003], [121.56078540000001, 25.0495275], [121.5607757, 25.050151899999996], [121.5614084, 25.050214099999994], [121.56256510000001, 25.050337400000004], [121.562557, 25.049806999999998], [121.56297920000002, 25.049845599999994], [121.5629743, 25.0503238], [121.563784, 25.0503221], [121.56378899999999, 25.050761700000002], [121.56421299999998, 25.050756899999996], [121.56473730000002, 25.050740199999996], [121.5653019, 25.050726299999997], [121.56538750000001, 25.0507277], [121.56546919999998, 25.0507265], [121.56550470000002, 25.050725099999998], [121.56571660000002, 25.0507167], [121.56612379999999, 25.050706899999994], [121.5661476, 25.051167599999992], [121.5661497, 25.0512085], [121.5661553, 25.0512901], [121.5661576, 25.051432999999992], [121.5662169, 25.0514324], [121.56624799999999, 25.0514319], [121.566283, 25.051431299999997], [121.56728150000002, 25.051415299999995], [121.5673432, 25.051412699999997], [121.56753420000001, 25.051464100000004], [121.56825060000001, 25.051454499999995], [121.5683493, 25.051451500000002], [121.56848370000002, 25.051449000000005], [121.56850530000001, 25.051448499999996], [121.56853560000002, 25.051447800000002], [121.56854850000002, 25.051447500000002], [121.5693347, 25.0514296], [121.5693353, 25.0514568], [121.5693344, 25.051879699999997], [121.5700612, 25.051875199999994], [121.5701118, 25.0518775], [121.5701718, 25.051880499999992], [121.57009870000002, 25.052314600000003], [121.57005130000002, 25.052603399999995], [121.5700402, 25.052657500000002], [121.5700342, 25.0526936], [121.5700291, 25.0527245], [121.57000600000002, 25.052864099999997], [121.5698859, 25.05359109999999], [121.5698184, 25.0539616], [121.56973310000001, 25.054367999999993], [121.5697317, 25.054447199999995], [121.56991969999999, 25.054480699999992], [121.5699324, 25.054433800000005], [121.5699407, 25.0544029], [121.5699452, 25.054386200000003], [121.5699771, 25.054267699999997], [121.570065, 25.0539417], [121.5701038, 25.053738599999996], [121.5702936, 25.052698300000003], [121.5702961, 25.052681899999996], [121.5703314, 25.052686400000002], [121.5705693, 25.052711100000003], [121.5707361, 25.051997], [121.570791, 25.051841499999995], [121.5708838, 25.0516717], [121.57093354515511, 25.05157351881129], [121.57132944343076, 25.051597731921998], [121.57151684885596, 25.051602716919906], [121.5752827756019, 25.05157298575538], [121.5754008741049, 25.051569485100885], [121.57706623561843, 25.051483859567732], [121.5774152, 25.051564399999997], [121.5777492, 25.05164149999999], [121.57902750000001, 25.051929599999998], [121.5798706, 25.052117299999995], [121.5798813, 25.051998000000005], [121.57988230000001, 25.051484499999997], [121.5799312, 25.051485799999995], [121.5801587, 25.051498199999994], [121.5801917, 25.0515006], [121.58039649999999, 25.051515099999996], [121.58137730000001, 25.0515849], [121.5814384, 25.0515893], [121.5814225, 25.051646799999993], [121.5812544, 25.052243999999998], [121.58124010000002, 25.0522948], [121.5812931, 25.0523073], [121.58160079999999, 25.052379899999995], [121.58166770000001, 25.052227], [121.58173739999998, 25.0521043], [121.58186609999998, 25.051988899999994], [121.5820056, 25.0519306], [121.58210330000001, 25.051917999999997], [121.5828577, 25.051989299999995], [121.58300040000002, 25.052080899999996], [121.58310099999998, 25.052364], [121.58315199999998, 25.052545], [121.583159, 25.0527783], [121.58316190000001, 25.0528747], [121.58324580000001, 25.0528988], [121.58327289999998, 25.052812599999992], [121.58344449999998, 25.0524724], [121.58383570000001, 25.052084900000004], [121.5842211, 25.052253699999998], [121.5843327, 25.052302500000003], [121.58441810000001, 25.052339899999993], [121.5848184, 25.0525152], [121.5848635, 25.0525349], [121.58575830000001, 25.052870599999995], [121.5859228, 25.052929800000005], [121.58615210000002, 25.0529763], [121.5862576, 25.053001299999995], [121.5864323, 25.053038300000004], [121.58684370000002, 25.0530395], [121.5868829, 25.053038300000004], [121.5869228, 25.053036300000002], [121.58743830000002, 25.053000099999995], [121.58776969999998, 25.0529849], [121.5883031, 25.053012099999993], [121.58838080000001, 25.0530181], [121.5884826, 25.053031099999995], [121.58877319999999, 25.053074299999995], [121.58917070000001, 25.053152999999995], [121.58957630000002, 25.053275], [121.589717, 25.053321800000003], [121.5897983, 25.053349799999992], [121.5898882, 25.053384000000005], [121.59007229999999, 25.0534541], [121.5901738, 25.0534993], [121.59107670000002, 25.0538498], [121.59113230000001, 25.053865599999998], [121.59118749999999, 25.0538785], [121.5917616, 25.0540606], [121.5918596, 25.054086600000005], [121.5922203, 25.054182399999995], [121.5922991, 25.054203299999994], [121.5923898, 25.054227399999995], [121.59273620000002, 25.0543194], [121.593139, 25.0544263], [121.5932237, 25.0544488], [121.59331760000002, 25.0544613], [121.5936622, 25.0545071], [121.59388950000002, 25.054497599999998], [121.5941329, 25.0544986], [121.5943012, 25.0544302], [121.59429450000002, 25.0543525], [121.594328, 25.054288099999997], [121.5943787, 25.054223099999998], [121.5944646, 25.054177], [121.59459870000002, 25.054106400000002], [121.59482020000002, 25.054006799999996], [121.5947189, 25.054328100000003], [121.5948644, 25.0543311], [121.5949382, 25.054056599999996], [121.59512800000002, 25.054222499999995], [121.59520180000001, 25.054290499999993], [121.5952661, 25.0543974], [121.5953709, 25.0544171], [121.59576499999999, 25.054413599999997], [121.5953826, 25.054490300000005], [121.5952722, 25.0545299], [121.59536260000002, 25.054574299999995], [121.5958557, 25.0547647], [121.5961816, 25.0548933], [121.59629099999998, 25.05480999999999], [121.59677300000001, 25.0547751], [121.59729609999998, 25.0547356], [121.5977597, 25.0547094], [121.59785229999999, 25.054773800000003], [121.5979492, 25.0548249], [121.5980762, 25.054864899999995], [121.5981718, 25.054888999999996], [121.5986381, 25.055010699999997], [121.59913339999999, 25.055161500000004], [121.5992646, 25.0552066], [121.59931840000002, 25.0551311], [121.59937480000002, 25.055064300000005], [121.5994387, 25.055009200000004], [121.59953990000001, 25.0549225], [121.59973219999999, 25.0548022], [121.59985580000001, 25.054739000000005], [121.59998950000002, 25.0548823], [121.600129, 25.054989300000003], [121.60021490000001, 25.0550573], [121.60028810000001, 25.055115299999997], [121.6003739, 25.055161500000004], [121.60043160000001, 25.055174799999993], [121.60053080000002, 25.055191799999992], [121.60063140000001, 25.0552064], [121.6007218, 25.055215199999996], [121.6009438, 25.0552203], [121.60103510000002, 25.05490199999999], [121.6010674, 25.0547513], [121.6011598, 25.0548376], [121.601204, 25.054866200000003], [121.601255, 25.054881400000003], [121.6013207, 25.054900299999996], [121.6013468, 25.054911199999996], [121.6015339, 25.054983399999998], [121.60172040000002, 25.0550351], [121.60191480000002, 25.05507280000001], [121.60212540000002, 25.055124999999997], [121.60229770000001, 25.055176099999997], [121.6023936, 25.0550303], [121.6024646, 25.054899899999995], [121.6024817, 25.054868600000006], [121.602575, 25.054900900000003], [121.6026533, 25.054928100000005], [121.6028375, 25.0550145], [121.602966, 25.0550808], [121.60302080000001, 25.0551043], [121.6030852, 25.055145599999996], [121.6030977, 25.055154], [121.6032224, 25.055237999999992], [121.6033386, 25.055321699999997], [121.6035751, 25.055510100000003], [121.6036891, 25.055608499999998], [121.60375709999998, 25.0556633], [121.60380800000001, 25.055704400000003], [121.6038694, 25.055749400000003], [121.6039408, 25.0558017], [121.6040371, 25.055858899999997], [121.6041152, 25.0559016], [121.60433750000001, 25.0559947], [121.6044421, 25.056021500000003], [121.6045561, 25.056030599999996], [121.6047016, 25.056047100000004], [121.6048946, 25.0560393], [121.6049122, 25.0560411], [121.6050698, 25.0560222], [121.60517769999998, 25.056008299999995], [121.60528440000002, 25.055999499999995], [121.6053875, 25.05599959999999], [121.6054707, 25.056003299999997], [121.605578, 25.0560203], [121.60571530000001, 25.056044599999996], [121.6057748, 25.056055100000002], [121.6057973, 25.0559611], [121.60581789999999, 25.0558748], [121.60590960000002, 25.055891799999994], [121.606161, 25.055938199999996], [121.6064795, 25.055997099999995], [121.60705850000001, 25.056111200000004], [121.6071472, 25.056124999999994], [121.60713490000002, 25.056179400000005], [121.6071069, 25.056303], [121.60708609999999, 25.056395399999992], [121.60706140000002, 25.056504500000003], [121.6070049, 25.056754399999996], [121.60696370000001, 25.056936599999997], [121.60694770000002, 25.057007399999996], [121.60687850000001, 25.05729399999999], [121.6068455, 25.057459500000004], [121.6068313, 25.057521999999995], [121.6067847, 25.0577284], [121.6067247, 25.057993499999995], [121.6067236, 25.057996299999992], [121.6067019, 25.0581034], [121.60679650000002, 25.058121299999996], [121.6070157, 25.058161799999993], [121.6074249, 25.0582402], [121.60795310000002, 25.0583756], [121.60827390000001, 25.058471000000004], [121.60895160000001, 25.058749099999996], [121.60900240000001, 25.0587691], [121.6091067, 25.058814300000005], [121.6091673, 25.0588403], [121.6092393, 25.0588689], [121.609734, 25.0590725], [121.6098111, 25.0591042], [121.6098233, 25.0590048], [121.60988059999998, 25.058537199999993], [121.60989589999998, 25.058414], [121.60995979999998, 25.057898999999995], [121.6099812, 25.057726499999994], [121.61001130000001, 25.057493100000002], [121.6100317, 25.057335], [121.6100448, 25.057233299999996], [121.6100531, 25.057161700000005], [121.61007709999998, 25.0569558], [121.610082, 25.056914], [121.61013310000001, 25.056501899999997], [121.61014490000001, 25.056407], [121.61020070000001, 25.0564131], [121.6106565, 25.0564592], [121.61101880000001, 25.056482500000005], [121.61118979999999, 25.056396699999997], [121.61135000000002, 25.0563164], [121.6113438, 25.0564206], [121.611295, 25.057237099999995], [121.6112226, 25.058554000000004], [121.6112118, 25.058696], [121.61119220000002, 25.058982699999998], [121.61118379999999, 25.059050299999996], [121.61155860000001, 25.059054199999995], [121.6117092, 25.059063499999997], [121.61181269999999, 25.0590673], [121.61259690000001, 25.059075699999994], [121.61282619999999, 25.059078099999997], [121.61342230000001, 25.0590665], [121.6141102, 25.059053099999996], [121.61421, 25.059051399999998], [121.61420110000002, 25.058906899999997], [121.6141531, 25.0583493], [121.6141476, 25.058277199999996], [121.61414410000002, 25.0582311], [121.6141215, 25.0579315], [121.6141081, 25.057754699999997], [121.6141022, 25.0576772], [121.61408350000002, 25.057429599999995], [121.61406469999999, 25.057182], [121.61406140000001, 25.057138299999995], [121.61405200000002, 25.05701459999999], [121.61417740000002, 25.0570065], [121.6142091, 25.0570045], [121.6146649, 25.056975099999995], [121.6153478, 25.056930999999995], [121.6160833, 25.056883599999992], [121.6165623, 25.0568527], [121.6166531, 25.05685019999999], [121.61664570000002, 25.0567471], [121.6165623, 25.055589399999995], [121.61658, 25.055356900000003], [121.6165829, 25.0551562], [121.6166831, 25.0550919], [121.61666280000001, 25.055013600000002], [121.616565, 25.054562200000003], [121.61654770000001, 25.054478500000002], [121.61653176393297, 25.0544007865101], [121.61654166318553, 25.05433126502824], [121.6165727, 25.0543396], [121.61663520000002, 25.0543392], [121.61691010000001, 25.054347400000005], [121.61715510000002, 25.054354600000003], [121.61735660000001, 25.054360600000006], [121.6173486, 25.0543162], [121.61728510000002, 25.0538739], [121.6171761, 25.0531138], [121.61713150000001, 25.052824299999997], [121.6171474, 25.052794899999995], [121.6171095, 25.0525313], [121.617102, 25.0524839], [121.6170906, 25.0524109], [121.61702710000002, 25.052006399999996], [121.61704020000002, 25.051966499999995], [121.61708139999999, 25.051895499999997], [121.61700460000002, 25.0518491], [121.61690760000002, 25.051788700000003], [121.6168629, 25.051827999999997], [121.61680449999999, 25.051851300000003], [121.6163072, 25.0519424], [121.6162203, 25.0519569], [121.61613780000002, 25.051970999999995], [121.6160242, 25.0519848], [121.61596059999998, 25.051992000000006], [121.61525010000001, 25.052092500000004], [121.61524678442476, 25.05209329729761], [121.6122961195397, 25.05174460650074], [121.60917960032288, 25.05131948399948], [121.6056417954766, 25.05074766776545], [121.60560950019925, 25.050742647859238], [121.59809887890962, 25.049621512358506], [121.59495169907926, 25.049086601215432], [121.59489866726742, 25.049078129160176], [121.59420614753006, 25.048974546792337], [121.594202, 25.048966499999995], [121.5941179, 25.048770799999993], [121.59412080000001, 25.0486636], [121.59404640000001, 25.048597200000003], [121.59391460000002, 25.048496699999998], [121.5934652, 25.048195599999996], [121.5930807, 25.047992], [121.59270440000002, 25.047791299999997], [121.59253849999999, 25.047667300000004], [121.59252460000002, 25.0477205], [121.59228280000002, 25.048049000000002], [121.59217870000002, 25.048166399999996], [121.592118, 25.0481038], [121.591906, 25.047990599999995], [121.59166689999999, 25.047895], [121.59128509999998, 25.0478802], [121.591148, 25.047881299999993], [121.590938, 25.047973], [121.59074850000002, 25.048053999999997], [121.5905269, 25.0479204], [121.5904885, 25.047896699999992], [121.590356, 25.0478319], [121.5902594, 25.0477715], [121.5904234, 25.0475755], [121.59064179999999, 25.047263200000007], [121.5907718, 25.0470797], [121.59057250000001, 25.04695999999999], [121.59026540000002, 25.0468068], [121.5901774, 25.046725199999997], [121.59017130000001, 25.0467181], [121.59016140000001, 25.046705399999993], [121.58974190000002, 25.0473839], [121.58966279999999, 25.047528400000004], [121.5895734, 25.0477053], [121.5893254, 25.047580600000003], [121.58926730000002, 25.0477305], [121.5891778, 25.047937099999995], [121.58912410000002, 25.048054099999995], [121.5886212, 25.047880099999997], [121.58855209999999, 25.0480605], [121.58816740000002, 25.047884699999997], [121.58834630000001, 25.0473562], [121.5883629, 25.0473129], [121.58843380000002, 25.0471166], [121.5879206, 25.046896799999995], [121.58774230000002, 25.046841899999993], [121.58686260000002, 25.0467158], [121.58591330000002, 25.047278000000002], [121.58554589999999, 25.0469672], [121.58550560000002, 25.0466975], [121.58510930000001, 25.0469343], [121.5845016, 25.047401699999998], [121.5844291, 25.047457499999997], [121.5843165, 25.047332999999984], [121.58407509999999, 25.047032899999994], [121.5836988, 25.046556899999995], [121.583658, 25.046494599999996], [121.5835065, 25.046268799999993], [121.5833525, 25.0460853], [121.5833053, 25.046022], [121.58284070000002, 25.045346], [121.58277219999998, 25.045248799999996], [121.5826837, 25.045357199999998], [121.58272920000002, 25.045409899999996], [121.58318880000002, 25.046047699999995], [121.5831586, 25.0460699], [121.5829169, 25.046247399999995], [121.5822668, 25.0467385], [121.58206200000001, 25.046877399999996], [121.58188310000001, 25.0467534], [121.5818538, 25.046729], [121.58084449999998, 25.046848900000004], [121.5807445, 25.046855099999995], [121.5807432, 25.046547299999997], [121.58074540000001, 25.0464771], [121.58059899999999, 25.046487], [121.58051290000002, 25.0464966], [121.580045, 25.046521599999995], [121.5800234, 25.0465232], [121.57982730000002, 25.046567], [121.57971510000002, 25.046614300000005], [121.5796527, 25.046739399999996], [121.5796399, 25.0468012], [121.578346, 25.0468189], [121.5783482, 25.046630299999997], [121.5778779, 25.046643999999997], [121.577851, 25.046645299999994], [121.57774600000002, 25.0466453], [121.57774610000001, 25.046498199999995], [121.57766720000001, 25.0464971], [121.57733770000002, 25.046492699999998], [121.57697629999998, 25.046494499999998], [121.5769109, 25.0468863], [121.5764064, 25.046894299999995], [121.57596900000001, 25.0469059], [121.5755507, 25.0469209], [121.5742861, 25.0469541], [121.57426970000002, 25.0466751], [121.57426760000001, 25.0465573], [121.5734115, 25.046603899999994], [121.57272829999998, 25.0466089], [121.5727133, 25.0461661], [121.5727067, 25.045971199999997], [121.5726978, 25.045710199999995], [121.57269510000002, 25.045630699999997], [121.5725777, 25.0456339], [121.57223079999999, 25.045643600000002], [121.57214730000001, 25.045645799999996], [121.57210050000002, 25.045647099999996], [121.57210440000001, 25.045756199999992], [121.57213860000002, 25.046699699999998], [121.57214190000002, 25.046791999999996], [121.5721478, 25.046955999999998], [121.57205559999998, 25.046907600000004], [121.57159235552396, 25.04665539963963], [121.57156100000002, 25.046712899999992], [121.5715628, 25.046948399999994], [121.57040300000001, 25.046970399999992], [121.570389, 25.0467279], [121.57038229999999, 25.046660999999997], [121.5703122, 25.046663400000003], [121.5689642, 25.046698299999996], [121.5688995, 25.046701700000003], [121.5688967, 25.046648500000003], [121.56887649999999, 25.046264], [121.5688159, 25.0462683], [121.5680293, 25.046272600000005], [121.5678037, 25.046357499999992], [121.56773759999999, 25.046375799999996], [121.5674293, 25.045868800000004], [121.56739340000001, 25.045810299999996], [121.5672993, 25.0458252], [121.5671248, 25.0458603], [121.56706289999998, 25.0457318], [121.5670075, 25.0456335], [121.56687230000001, 25.045365299999997], [121.5668115, 25.045367000000002], [121.5667654, 25.045360600000002], [121.56665749999999, 25.045338899999997], [121.56541489999998, 25.0448544], [121.5639472, 25.044282300000003], [121.56368849999998, 25.0441814], [121.56363860000002, 25.0443792], [121.5635887, 25.0445771], [121.56280990000002, 25.044573999999997], [121.562813, 25.044379700000004], [121.5628143, 25.0442763], [121.5628129, 25.0441858], [121.56280060000002, 25.0437408], [121.5627846, 25.043258499999997], [121.5627823, 25.043203800000004], [121.5627691, 25.0428531], [121.56276260000001, 25.042706300000003], [121.5627567, 25.042423300000003], [121.56275389999999, 25.04226050000001], [121.5627499, 25.041930599999997], [121.5627399, 25.0413852], [121.56273760000002, 25.0412558], [121.56266810000001, 25.041258399999997], [121.56172540000001, 25.041294499999996], [121.56158580000002, 25.041299], [121.5614381, 25.0413061], [121.56046889999999, 25.041342999999994], [121.5589821, 25.041393699999997], [121.5578262, 25.041411099999998], [121.55774370000002, 25.041412800000003], [121.55761809999998, 25.041415699999998], [121.5576221, 25.041533599999994], [121.55762409999998, 25.041744299999998], [121.557638, 25.0423402], [121.5575585, 25.0423402], [121.557065, 25.0423508], [121.5567036, 25.042357499999994], [121.55667350000002, 25.042358099999998], [121.5564562, 25.0423621], [121.5564787, 25.0423161], [121.5565582, 25.042051500000003], [121.5565649, 25.04198269999999], [121.5565389, 25.041983499999997], [121.5564697, 25.041984399999997], [121.5555718, 25.042001399999997], [121.5550506, 25.0420112], [121.55458489999998, 25.04202], [121.5543941, 25.0420236], [121.5543214, 25.0420249], [121.5544389, 25.041560000000004], [121.5544785, 25.041479999999996], [121.55441169999999, 25.0414817], [121.55401660000001, 25.041492], [121.5539877, 25.041558800000004], [121.5537743, 25.042034199999996], [121.55299470000001, 25.042042099999996], [121.5519237, 25.0420774], [121.55078680000001, 25.042114599999998], [121.5496567, 25.042144799999996], [121.54965659999999, 25.042087299999995], [121.54920360000001, 25.0420932], [121.5491293, 25.042093600000005], [121.54911470000002, 25.041766299999995], [121.5491143, 25.041719100000005], [121.549113, 25.04158839999999], [121.548901, 25.041595500000003], [121.5488758, 25.0415958], [121.5486169, 25.0416027], [121.54849, 25.0416041], [121.54810480000002, 25.041609399999995], [121.54810699999999, 25.0416872], [121.5481006, 25.042156499999997], [121.5480937, 25.0426189], [121.5472411, 25.0426234], [121.5462463, 25.04265910000001], [121.54616889999998, 25.0426623], [121.5461093, 25.042637499999998], [121.5453757, 25.042657899999995], [121.5453077, 25.042574600000002], [121.54451449999999, 25.0426624], [121.5445098, 25.0424818], [121.5444699, 25.04248249999999], [121.5439958, 25.042517399999994], [121.5439764, 25.042517699999998], [121.54386610000002, 25.0425198], [121.54384360000002, 25.0418438], [121.5438394, 25.041683899999995], [121.5437139, 25.0416931], [121.5435485, 25.0416959], [121.5430163, 25.0417071], [121.5430175, 25.041799300000005], [121.54302100000001, 25.041949299999988], [121.54298619999999, 25.042038099999996], [121.54291210000001, 25.042188999999997], [121.54282899999998, 25.0423385], [121.54258989999998, 25.042337400000005], [121.54164630000001, 25.042347700000004], [121.54164500000002, 25.042200700000002], [121.54164170000001, 25.0420416], [121.5408442, 25.0420459], [121.54069430000001, 25.042049599999995], [121.5406986, 25.0423138], [121.5397178, 25.0423273], [121.53860010000001, 25.042340299999996], [121.5386516, 25.042070799999994], [121.5387005, 25.041849599999992], [121.5387161, 25.0417555], [121.5374754, 25.0417694], [121.53734299999999, 25.041770900000003], [121.53724660000002, 25.0417778], [121.5369054, 25.041810600000005], [121.5367723, 25.041825400000004], [121.5366156, 25.041848899999998], [121.535477, 25.0420093], [121.5353426, 25.04202679999999], [121.5339535, 25.0422308], [121.53324230000001, 25.0423345], [121.5332073, 25.0423396], [121.5331684, 25.0423463], [121.53291769999998, 25.042389099999998], [121.53278020000002, 25.042416899999996], [121.53258379999998, 25.0424633], [121.53213169999998, 25.04258429999999], [121.53215770000001, 25.0426789], [121.53226509999999, 25.0431762], [121.5322269, 25.0431824], [121.5315664, 25.0432893], [121.53130059999998, 25.0432968], [121.53087200000002, 25.0433283], [121.5307906, 25.0430502], [121.53075960000001, 25.042952899999996], [121.5306559, 25.0429801], [121.5301929, 25.043109299999994], [121.530085, 25.0431395], [121.5299832, 25.043165799999997], [121.5300141, 25.043257899999997], [121.5301006, 25.043514299999995], [121.53011189999998, 25.043547699999998], [121.5301252, 25.043585199999995], [121.53016499999998, 25.0437086], [121.5298938, 25.0436437], [121.52978719999999, 25.0436187], [121.5297595, 25.0436113], [121.5297025, 25.043597700000003], [121.52926070000001, 25.043492099999998], [121.5290033, 25.0434305], [121.5289187, 25.0434535], [121.52865079999998, 25.043526299999993], [121.5280655, 25.0436852], [121.5275444, 25.043826699999997], [121.527137, 25.043939800000004], [121.5270172, 25.043972999999998], [121.526986, 25.04398009999999], [121.52686, 25.0440126], [121.5267522, 25.04404209999999], [121.5260416, 25.044213200000005], [121.5253377, 25.044382], [121.52521849999998, 25.044412999999995], [121.52511969999999, 25.044436199999993], [121.52514459999999, 25.044519500000007], [121.5251528, 25.0445495], [121.52516140000002, 25.044572000000002], [121.52532139999998, 25.045148499999996], [121.5245228, 25.0453398], [121.5244421, 25.045359099999995], [121.5243821, 25.045154], [121.52361740000002, 25.045337399999998], [121.5235084, 25.045363599999995], [121.52340770000002, 25.045019100000005], [121.52340200000002, 25.044999500000003], [121.5233641, 25.044869899999995], [121.523211, 25.044906899999997], [121.5228237, 25.0450049], [121.5224898, 25.0450869], [121.52180530000001, 25.045255100000002], [121.5217398, 25.0452713], [121.5216503, 25.0452937], [121.5215783, 25.0453094], [121.52151589999998, 25.0453238], [121.52133240000002, 25.045369099999995], [121.520623, 25.045544400000004], [121.52009400000001, 25.045672700000004], [121.51999580000002, 25.045694099999995], [121.51990580000002, 25.045711600000004], [121.5197858, 25.045735899999993], [121.5196578, 25.045761100000004], [121.5195271, 25.0457875], [121.5192634, 25.045846900000004], [121.5187773, 25.045971799999997], [121.51848740000001, 25.046040499999997], [121.5175562, 25.046261], [121.5181803, 25.046017299999995], [121.51747870000001, 25.046147000000005], [121.51746820000001, 25.0461482], [121.5174335, 25.0460228], [121.51734280000001, 25.045695099999996], [121.51729119999999, 25.0455084], [121.5171629, 25.045511300000005], [121.5169388, 25.0455116], [121.5168452, 25.0455133], [121.5167332, 25.0455132], [121.51645800000001, 25.045512999999996], [121.5161186, 25.045512699999993], [121.51544480000001, 25.0455136], [121.5151066, 25.045513999999997], [121.515027, 25.0455141], [121.5150238, 25.045978000000005], [121.5149076, 25.045977800000003], [121.51419580000001, 25.045981299999998], [121.51389210000002, 25.045986300000003], [121.51382970000002, 25.045987299999997], [121.51334409999998, 25.0459865], [121.51324860000001, 25.0459863], [121.51315440000002, 25.045986699999993], [121.5124568, 25.045989299999995], [121.5114294, 25.0459901], [121.51131839999998, 25.0459934], [121.51128829999999, 25.0462264], [121.5112291, 25.046751699999998], [121.51120850000001, 25.0469342], [121.51116350000001, 25.0469526], [121.51111099999999, 25.046955599999997], [121.51105279999999, 25.046950100000004], [121.51100320000002, 25.046937499999995], [121.5110275, 25.047036500000004], [121.51103090000001, 25.047057799999997], [121.5110406, 25.047094199999997], [121.5110677, 25.0471747], [121.5110902, 25.0472479], [121.51109480000001, 25.047280999999995], [121.5110997, 25.047314999999998], [121.5110952, 25.047358000000003], [121.51107680000001, 25.047391899999997], [121.51105060000002, 25.047439300000004], [121.5110208, 25.04746529999999], [121.51097150000001, 25.047498500000003], [121.510929, 25.0475157], [121.5108861, 25.047525500000003], [121.51080070000002, 25.047532100000005], [121.5107341, 25.047534599999995], [121.51054860000002, 25.047544299999995], [121.5105197, 25.0475411], [121.51049089999998, 25.047529900000008], [121.5104629, 25.047510499999994], [121.51043389999998, 25.04748139999999], [121.5102441, 25.0472961], [121.51018620000002, 25.047247199999997], [121.5101141, 25.047209499999997], [121.50999610000001, 25.0470789], [121.5099029, 25.047023799999998], [121.50988440000002, 25.0469757], [121.50964170000002, 25.0470339], [121.50978849999998, 25.0476018], [121.50979720000001, 25.047903], [121.5096638, 25.047631099999997], [121.5095548, 25.0472482], [121.5095062, 25.047066499999996], [121.509472, 25.0469543], [121.50925479999998, 25.046190799999994], [121.5092146, 25.046047999999995], [121.50909360000001, 25.046063700000005], [121.5082857, 25.046250500000003], [121.50809570000001, 25.0462923], [121.5080337, 25.046305999999998], [121.5079903, 25.046318099999997], [121.5076437, 25.046402299999993], [121.50751879999999, 25.0459763], [121.50697879999998, 25.046108400000005], [121.5069057, 25.0461257], [121.50679509999999, 25.045746699999995], [121.50677530000002, 25.0456735], [121.50668440000001, 25.045694199999996], [121.50620860000001, 25.0458027], [121.5061859, 25.0457266], [121.50607120000001, 25.045342600000005], [121.5060182, 25.045355599999997], [121.5055247, 25.0454994], [121.5046867, 25.045704], [121.5042213, 25.045808599999997], [121.5040459, 25.045846400000002]], [[121.56682302869372, 25.046201953751645], [121.56682302869372, 25.046201953751645], [121.56693959999998, 25.0459471], [121.56682302869372, 25.046201953751645]], [[121.56673503641957, 25.046180487806744], [121.56673503641957, 25.046180487806744], [121.56687620000001, 25.045884600000004], [121.56673503641957, 25.046180487806744]]]}}]}